NORAD_CAT_ID,OBJECT_NAME,OBJECT_TYPE,EPOCH,MEAN_MOTION,ECCENTRICITY,INCLINATION,RA_OF_ASC_NODE,ARG_OF_PERICENTER,MEAN_ANOMALY,BSTAR,MEAN_MOTION_DOT,MEAN_MOTION_DDOT,TLE_LINE0,TLE_LINE1,TLE_LINE2,SEMIMAJOR_AXIS,PERIOD,APOGEE,PERIGEE,DECAYED
53731.0,STARLINK-4636,PAYLOAD,2023-03-07 17:00:31,15.08872578,0.0001179,53.2172,143.3027,104.8892,255.2231,0.0035543,0.00056785,0.0,0 STARLINK-4636,1 53731U 22107AH  23066.70869214  .00056785  00000-0  35543-2 0  9998,2 53731  53.2172 143.3027 0001179 104.8892 255.2231 15.08872578 28192,6917.781,95.435,540.461,538.83,0.0
53731.0,STARLINK-4636,PAYLOAD,2023-03-07 21:46:41,15.08821083,0.0002413,53.2171,142.4108,77.5531,282.5731,0.0025856,0.00041082,0.0,0 STARLINK-4636,1 53731U 22107AH  23066.90742109  .00041082  00000-0  25856-2 0  9993,2 53731  53.2171 142.4108 0002413  77.5531 282.5731 15.08821083 28855,6917.938,95.439,541.473,538.134,0.0
53731.0,STARLINK-4636,PAYLOAD,2023-03-08 04:08:13,15.08839265,0.0002314,53.2168,141.2221,77.362,282.7631,0.0034424,0.00054925,0.0,0 STARLINK-4636,1 53731U 22107AH  23067.17238266  .00054925  00000-0  34424-2 0  9998,2 53731  53.2168 141.2221 0002314  77.3620 282.7631 15.08839265 28268,6917.883,95.438,541.348,538.147,0.0
53731.0,STARLINK-4636,PAYLOAD,2023-03-08 10:29:46,15.08848487,0.0001527,53.2171,140.033,83.7501,276.3665,0.0022493,0.000357,0.0,0 STARLINK-4636,1 53731U 22107AH  23067.43734141  .00035700  00000-0  22493-2 0  9993,2 53731  53.2171 140.0330 0001527  83.7501 276.3665 15.08848487 28301,6917.854,95.437,540.776,538.663,0.0
53731.0,STARLINK-4636,PAYLOAD,2023-03-08 21:37:28,15.08854705,0.000118,53.2165,137.9524,95.1123,265.0004,0.0016954,0.00026808,0.0,0 STARLINK-4636,1 53731U 22107AH  23067.90102051  .00026808  00000-0  16954-2 0  9998,2 53731  53.2165 137.9524 0001180  95.1123 265.0004 15.08854705 28375,6917.835,95.437,540.517,538.884,0.0
53731.0,STARLINK-4636,PAYLOAD,2023-03-09 11:55:55,15.08868007,0.0001452,53.2166,135.2742,93.0804,267.0354,0.001272,0.00020029,0.0,0 STARLINK-4636,1 53731U 22107AH  23068.49717566  .00020029  00000-0  12720-2 0  9992,2 53731  53.2166 135.2742 0001452  93.0804 267.0354 15.08868007 28464,6917.795,95.436,540.664,538.655,0.0
53731.0,STARLINK-4636,PAYLOAD,2023-03-09 21:28:14,15.08856347,0.0001602,53.2165,133.4899,75.4553,284.6617,0.00099547,0.00015597,0.0,0 STARLINK-4636,1 53731U 22107AH  23068.89461500  .00015597  00000-0  99547-3 0  9997,2 53731  53.2165 133.4899 0001602  75.4553 284.6617 15.08856347 29156,6917.83,95.437,540.804,538.587,0.0
53731.0,STARLINK-4636,PAYLOAD,2023-03-10 10:11:19,15.08852995,0.0001324,53.2145,131.1116,78.9281,281.186,0.00044785,6.849e-05,0.0,0 STARLINK-4636,1 53731U 22107AH  23069.42453238  .00006849  00000-0  44785-3 0  9990,2 53731  53.2145 131.1116 0001324  78.9281 281.1860 15.08852995 28604,6917.841,95.437,540.622,538.79,0.0
53731.0,STARLINK-4636,PAYLOAD,2023-03-10 21:19:01,15.08842001,0.0001748,53.2163,129.0293,85.5358,274.5833,0.00021146,3.079e-05,0.0,0 STARLINK-4636,1 53731U 22107AH  23069.88821536  .00003079  00000-0  21146-3 0  9998,2 53731  53.2163 129.0293 0001748  85.5358 274.5833 15.08842001 29306,6917.874,95.437,540.949,538.53,0.0
53731.0,STARLINK-4636,PAYLOAD,2023-03-11 03:40:34,15.08824821,0.0001934,53.2157,127.8407,85.5226,274.5987,-0.00049028,-8.079e-05,0.0,0 STARLINK-4636,1 53731U 22107AH  23070.15318115 -.00008079  00000-0 -49028-3 0  9990,2 53731  53.2157 127.8407 0001934  85.5226 274.5987 15.08824821 28717,6917.927,95.439,541.13,538.454,0.0
53731.0,STARLINK-4636,PAYLOAD,2023-03-11 13:12:54,15.08829643,0.0001983,53.2149,126.0553,93.6548,266.4671,0.0002491,3.677e-05,0.0,0 STARLINK-4636,1 53731U 22107AH  23070.55062557  .00003677  00000-0  24910-3 0  9990,2 53731  53.2149 126.0553 0001983  93.6548 266.4671 15.08829643 29406,6917.912,95.438,541.149,538.405,0.0
53731.0,STARLINK-4636,PAYLOAD,2023-03-11 14:48:17,15.08834467,0.0001796,53.2149,125.7585,90.9418,269.178,0.0007868,0.00012254,0.0,0 STARLINK-4636,1 53731U 22107AH  23070.61686543  .00012254  00000-0  78680-3 0  9998,2 53731  53.2149 125.7585 0001796  90.9418 269.1780 15.08834467 28786,6917.897,95.438,541.005,538.52,0.0
53731.0,STARLINK-4636,PAYLOAD,2023-03-12 03:31:22,15.08832005,0.0001793,53.2135,123.3793,92.8523,267.2674,0.00079903,0.00012449,0.0,0 STARLINK-4636,1 53731U 22107AH  23071.14679301  .00012449  00000-0  79903-3 0  9996,2 53731  53.2135 123.3793 0001793  92.8523 267.2674 15.08832005 28867,6917.905,95.438,541.01,538.529,0.0
53731.0,STARLINK-4636,PAYLOAD,2023-03-12 09:52:55,15.08846995,0.0001653,53.2165,122.1896,97.799,262.319,0.0015001,0.00023671,0.0,0 STARLINK-4636,1 53731U 22107AH  23071.41175286  .00023671  00000-0  15001-2 0  9996,2 53731  53.2165 122.1896 0001653  97.7990 262.3190 15.08846995 28905,6917.859,95.437,540.868,538.58,0.0
53731.0,STARLINK-4636,PAYLOAD,2023-03-14 03:12:56,15.08873823,0.0001576,53.2157,114.4562,85.1689,274.9483,0.0011253,0.00017683,0.0,0 STARLINK-4636,1 53731U 22107AH  23073.13398818  .00017683  00000-0  11253-2 0  9996,2 53731  53.2157 114.4562 0001576  85.1689 274.9483 15.08873823 29163,6917.777,95.435,540.732,538.552,0.0
53731.0,STARLINK-4636,PAYLOAD,2023-03-14 12:45:15,15.08847712,0.0001653,53.2162,112.6736,105.5561,254.5614,0.00014517,2.024e-05,0.0,0 STARLINK-4636,1 53731U 22107AH  23073.53142586  .00002024  00000-0  14517-3 0  9999,2 53731  53.2162 112.6736 0001653 105.5561 254.5614 15.08847712 29229,6917.857,95.437,540.865,538.578,0.0
53731.0,STARLINK-4636,PAYLOAD,2023-03-14 19:06:47,15.08846666,0.0001711,53.2164,111.4847,95.4036,264.7151,0.00010112,1.322e-05,0.0,0 STARLINK-4636,1 53731U 22107AH  23073.79638660  .00001322  00000-0  10112-3 0  9997,2 53731  53.2164 111.4847 0001711  95.4036 264.7151 15.08846666 29899,6917.86,95.437,540.909,538.541,0.0
53731.0,STARLINK-4636,PAYLOAD,2023-03-15 12:36:00,15.08878828,0.0001458,53.2164,108.2135,105.7281,254.3872,8.5345e-05,1.072e-05,0.0,0 STARLINK-4636,1 53731U 22107AH  23074.52501094  .00001072  00000-0  85345-4 0  9992,2 53731  53.2164 108.2135 0001458 105.7281 254.3872 15.08878828 29371,6917.762,95.435,540.635,538.618,0.0
53731.0,STARLINK-4636,PAYLOAD,2023-03-15 18:57:34,15.08830753,0.0001716,53.2165,107.0242,98.6363,261.4823,-0.00060941,-9.971e-05,0.0,0 STARLINK-4636,1 53731U 22107AH  23074.78998317 -.00009971  00000-0 -60941-3 0  9990,2 53731  53.2165 107.0242 0001716  98.6363 261.4823 15.08830753 29411,6917.909,95.438,540.961,538.587,0.0
53731.0,STARLINK-4636,PAYLOAD,2023-03-15 20:32:57,15.08833682,0.000145,53.2164,106.727,104.1238,255.9915,-0.00048575,-8.009e-05,0.0,0 STARLINK-4636,1 53731U 22107AH  23074.85622163 -.00008009  00000-0 -48575-3 0  9991,2 53731  53.2164 106.7270 0001450 104.1238 255.9915 15.08833682 30052,6917.9,95.438,540.768,538.762,0.0
53731.0,STARLINK-4636,PAYLOAD,2023-03-16 06:05:16,15.08837634,0.0001367,53.2164,104.943,104.2421,255.8723,6.2039e-05,7e-06,0.0,0 STARLINK-4636,1 53731U 22107AH  23075.25366336  .00000700  00000-0  62039-4 0  9993,2 53731  53.2164 104.9430 0001367 104.2421 255.8723 15.08837634 29484,6917.888,95.438,540.698,538.807,0.0
53731.0,STARLINK-4636,PAYLOAD,2023-03-16 12:26:49,15.08834886,0.0001241,53.2162,103.7541,99.1252,260.988,0.0010729,0.00016826,0.0,0 STARLINK-4636,1 53731U 22107AH  23075.51862570  .00016826  00000-0  10729-2 0  9996,2 53731  53.2162 103.7541 0001241  99.1252 260.9880 15.08834886 30150,6917.896,95.438,540.62,538.903,0.0
53731.0,STARLINK-4636,PAYLOAD,2023-03-16 18:48:22,15.08834469,0.0001438,53.2159,102.5639,93.6221,266.4936,0.0005551,8.556e-05,0.0,0 STARLINK-4636,1 53731U 22107AH  23075.78358888  .00008556  00000-0  55510-3 0  9996,2 53731  53.2159 102.5639 0001438  93.6221 266.4936 15.08834469 30198,6917.897,95.438,540.757,538.768,0.0
53731.0,STARLINK-4636,PAYLOAD,2023-03-17 05:56:04,15.08836846,0.0001612,53.2159,100.4827,87.9548,272.1629,0.00087962,0.00013738,0.0,0 STARLINK-4636,1 53731U 22107AH  23076.24727334  .00013738  00000-0  87962-3 0  9998,2 53731  53.2159 100.4827 0001612  87.9548 272.1629 15.08836846 29637,6917.89,95.438,540.87,538.64,0.0
53731.0,STARLINK-4636,PAYLOAD,2023-03-17 10:42:13,15.08838539,0.000139,53.2158,99.5907,86.8059,273.3092,0.0009551,0.00014944,0.0,0 STARLINK-4636,1 53731U 22107AH  23076.44599367  .00014944  00000-0  95510-3 0  9991,2 53731  53.2158  99.5907 0001390  86.8059 273.3092 15.08838539 30293,6917.885,95.438,540.711,538.788,0.0
53731.0,STARLINK-4636,PAYLOAD,2023-03-17 18:39:09,15.08843618,0.0001416,53.2158,98.1037,91.8478,268.2676,0.00077995,0.00012148,0.0,0 STARLINK-4636,1 53731U 22107AH  23076.77719330  .00012148  00000-0  77995-3 0  9992,2 53731  53.2158  98.1037 0001416  91.8478 268.2676 15.08843618 30343,6917.869,95.437,540.714,538.755,0.0
53731.0,STARLINK-4636,PAYLOAD,2023-03-18 01:00:41,15.0884791,0.0001453,53.2157,96.9138,91.3546,268.7613,0.0006623,0.0001027,0.0,0 STARLINK-4636,1 53731U 22107AH  23077.04215225  .00010270  00000-0  66230-3 0  9991,2 53731  53.2157  96.9138 0001453  91.3546 268.7613 15.08847910 29750,6917.856,95.437,540.726,538.716,0.0
53731.0,STARLINK-4636,PAYLOAD,2023-03-18 18:29:56,15.08849159,0.0001428,53.2159,93.6425,90.9138,269.2017,0.00036594,5.542e-05,0.0,0 STARLINK-4636,1 53731U 22107AH  23077.77078872  .00005542  00000-0  36594-3 0  9992,2 53731  53.2159  93.6425 0001428  90.9138 269.2017 15.08849159 29862,6917.852,95.437,540.705,538.73,0.0
53731.0,STARLINK-4636,PAYLOAD,2023-03-19 11:59:10,15.08854909,0.0001419,53.2156,90.3706,92.911,267.2044,0.00041085,6.259e-05,0.0,0 STARLINK-4636,1 53731U 22107AH  23078.49942488  .00006259  00000-0  41085-3 0  9992,2 53731  53.2156  90.3706 0001419  92.9110 267.2044 15.08854909 30608,6917.835,95.437,540.681,538.718,0.0
53731.0,STARLINK-4636,PAYLOAD,2023-03-19 18:20:43,15.08839813,0.0001383,53.216,89.1817,94.2669,265.8481,3.3189e-05,2.4e-06,0.0,0 STARLINK-4636,1 53731U 22107AH  23078.76438854  .00000240  00000-0  33189-4 0  9990,2 53731  53.2160  89.1817 0001383  94.2669 265.8481 15.08839813 30017,6917.881,95.438,540.703,538.789,0.0
